{
  "type": "FeatureCollection",
  "features": [
    {
      "type": "Feature",
      "properties": {
        "norad_id": 27954,
        "name": "GALAXY 13 (HORIZONS-1)",
        "group": "intelsat",
        "lat": -0.4319184766601542,
        "lon": -68.21467791362257,
        "alt_km": 35778.608096346514,
        "timestamp": "2025-12-18T23:35:48.714804+00:00",
        "meta_object_name": "GALAXY 13 (HORIZONS-1)",
        "meta_object_id": "2003-044A",
        "meta_epoch": "2025-12-18T13:32:54.062304",
        "meta_mean_motion": 1.00267702,
        "meta_eccentricity": 0.00023572,
        "meta_inclination": 0.9513,
        "meta_ra_of_asc_node": 86.3958,
        "meta_arg_of_pericenter": 175.0411,
        "meta_mean_anomaly": 239.2128,
        "meta_ephemeris_type": 0,
        "meta_classification_type": "U",
        "meta_norad_cat_id": 27954,
        "meta_element_set_no": 999,
        "meta_rev_at_epoch": 4476,
        "meta_bstar": 0,
        "meta_mean_motion_dot": 1.57e-06,
        "meta_mean_motion_ddot": 0,
        "tle_line1": "1 27954U 03044A   25352.56451461  .00000157  00000+0  00000+0 0  9998",
        "tle_line2": "2 27954   0.9513  86.3958 0002357 175.0411 239.2128  1.00267702 44765"
      },
      "geometry": {
        "type": "Point",
        "coordinates": [
          -68.21467791362257,
          -0.4319184766601542
        ]
      }
    },
    {
      "type": "Feature",
      "properties": {
        "norad_id": 28358,
        "name": "INTELSAT 10-02",
        "group": "intelsat",
        "lat": 0.020992933020178163,
        "lon": 80.82596663527055,
        "alt_km": 35789.012605632815,
        "timestamp": "2025-12-18T23:35:48.714829+00:00",
        "meta_object_name": "INTELSAT 10-02",
        "meta_object_id": "2004-022A",
        "meta_epoch": "2025-12-18T13:17:26.701728",
        "meta_mean_motion": 1.00271255,
        "meta_eccentricity": 8.937e-05,
        "meta_inclination": 0.0207,
        "meta_ra_of_asc_node": 69.131,
        "meta_arg_of_pericenter": 233.9909,
        "meta_mean_anomaly": 342.6942,
        "meta_ephemeris_type": 0,
        "meta_classification_type": "U",
        "meta_norad_cat_id": 28358,
        "meta_element_set_no": 999,
        "meta_rev_at_epoch": 7874,
        "meta_bstar": 0,
        "meta_mean_motion_dot": 1.4e-07,
        "meta_mean_motion_ddot": 0,
        "tle_line1": "1 28358U 04022A   25352.55378127  .00000014  00000+0  00000+0 0  9992",
        "tle_line2": "2 28358   0.0207  69.1310 0000893 233.9909 342.6942  1.00271255 78741"
      },
      "geometry": {
        "type": "Point",
        "coordinates": [
          80.82596663527055,
          0.020992933020178163
        ]
      }
    },
    {
      "type": "Feature",
      "properties": {
        "norad_id": 28626,
        "name": "XM-3 (RHYTHM)",
        "group": "intelsat",
        "lat": 0.18864863164290102,
        "lon": 166.4234611857136,
        "alt_km": 36168.305328392504,
        "timestamp": "2025-12-18T23:35:48.714852+00:00",
        "meta_object_name": "XM-3 (RHYTHM)",
        "meta_object_id": "2005-008A",
        "meta_epoch": "2025-12-18T13:42:24.310944",
        "meta_mean_motion": 0.98950295,
        "meta_eccentricity": 0.0001857,
        "meta_inclination": 0.1893,
        "meta_ra_of_asc_node": 81.9084,
        "meta_arg_of_pericenter": 277.9759,
        "meta_mean_anomaly": 19.7481,
        "meta_ephemeris_type": 0,
        "meta_classification_type": "U",
        "meta_norad_cat_id": 28626,
        "meta_element_set_no": 999,
        "meta_rev_at_epoch": 4080,
        "meta_bstar": 0,
        "meta_mean_motion_dot": 3.5e-07,
        "meta_mean_motion_ddot": 0,
        "tle_line1": "1 28626U 05008A   25352.57111471  .00000035  00000+0  00000+0 0  9997",
        "tle_line2": "2 28626   0.1893  81.9084 0001857 277.9759  19.7481  0.98950295 40803"
      },
      "geometry": {
        "type": "Point",
        "coordinates": [
          166.4234611857136,
          0.18864863164290102
        ]
      }
    },
    {
      "type": "Feature",
      "properties": {
        "norad_id": 28659,
        "name": "DIRECTV 8",
        "group": "intelsat",
        "lat": -0.02639947029929463,
        "lon": -37.24798568006158,
        "alt_km": 35778.005849933215,
        "timestamp": "2025-12-18T23:35:48.714866+00:00",
        "meta_object_name": "DIRECTV 8",
        "meta_object_id": "2005-019A",
        "meta_epoch": "2025-12-18T14:20:49.221024",
        "meta_mean_motion": 1.00270136,
        "meta_eccentricity": 0.00028472,
        "meta_inclination": 0.0267,
        "meta_ra_of_asc_node": 353.8079,
        "meta_arg_of_pericenter": 284.0451,
        "meta_mean_anomaly": 265.7617,
        "meta_ephemeris_type": 0,
        "meta_classification_type": "U",
        "meta_norad_cat_id": 28659,
        "meta_element_set_no": 999,
        "meta_rev_at_epoch": 7526,
        "meta_bstar": 0,
        "meta_mean_motion_dot": 0,
        "meta_mean_motion_ddot": 0,
        "tle_line1": "1 28659U 05019A   25352.59779191  .00000000  00000+0  00000+0 0  9998",
        "tle_line2": "2 28659   0.0267 353.8079 0002847 284.0451 265.7617  1.00270136 75261"
      },
      "geometry": {
        "type": "Point",
        "coordinates": [
          -37.24798568006158,
          -0.02639947029929463
        ]
      }
    },
    {
      "type": "Feature",
      "properties": {
        "norad_id": 28702,
        "name": "GALAXY 28 (G-28)",
        "group": "intelsat",
        "lat": -2.834491197387548,
        "lon": -6.86613787863346,
        "alt_km": 35784.612817692534,
        "timestamp": "2025-12-18T23:35:48.714879+00:00",
        "meta_object_name": "GALAXY 28 (G-28)",
        "meta_object_id": "2005-022A",
        "meta_epoch": "2025-12-18T14:35:04.267392",
        "meta_mean_motion": 1.00271072,
        "meta_eccentricity": 0.00029255,
        "meta_inclination": 2.8345,
        "meta_ra_of_asc_node": 81.215,
        "meta_arg_of_pericenter": 191.5639,
        "meta_mean_anomaly": 304.7711,
        "meta_ephemeris_type": 0,
        "meta_classification_type": "U",
        "meta_norad_cat_id": 28702,
        "meta_element_set_no": 999,
        "meta_rev_at_epoch": 5016,
        "meta_bstar": 0,
        "meta_mean_motion_dot": -1.65e-06,
        "meta_mean_motion_ddot": 0,
        "tle_line1": "1 28702U 05022A   25352.60768828 -.00000165  00000+0  00000+0 0  9991",
        "tle_line2": "2 28702   2.8345  81.2150 0002925 191.5639 304.7711  1.00271072 50167"
      },
      "geometry": {
        "type": "Point",
        "coordinates": [
          -6.86613787863346,
          -2.834491197387548
        ]
      }
    },
    {
      "type": "Feature",
      "properties": {
        "norad_id": 29236,
        "name": "GALAXY 16 (G-16)",
        "group": "intelsat",
        "lat": 0.004295455283446649,
        "lon": -17.19408643846554,
        "alt_km": 35784.07143678333,
        "timestamp": "2025-12-18T23:35:48.714891+00:00",
        "meta_object_name": "GALAXY 16 (G-16)",
        "meta_object_id": "2006-023A",
        "meta_epoch": "2025-12-18T14:32:12.041952",
        "meta_mean_motion": 1.002715,
        "meta_eccentricity": 0.00024721,
        "meta_inclination": 0.0298,
        "meta_ra_of_asc_node": 220.8684,
        "meta_arg_of_pericenter": 43.483,
        "meta_mean_anomaly": 302.1634,
        "meta_ephemeris_type": 0,
        "meta_classification_type": "U",
        "meta_norad_cat_id": 29236,
        "meta_element_set_no": 999,
        "meta_rev_at_epoch": 7116,
        "meta_bstar": 0,
        "meta_mean_motion_dot": -1.02e-06,
        "meta_mean_motion_ddot": 0,
        "tle_line1": "1 29236U 06023A   25352.60569493 -.00000102  00000+0  00000+0 0  9994",
        "tle_line2": "2 29236   0.0298 220.8684 0002472  43.4830 302.1634  1.00271500 71160"
      },
      "geometry": {
        "type": "Point",
        "coordinates": [
          -17.19408643846554,
          0.004295455283446649
        ]
      }
    },
    {
      "type": "Feature",
      "properties": {
        "norad_id": 29494,
        "name": "DIRECTV 9S",
        "group": "intelsat",
        "lat": -1.9143829838695083,
        "lon": -19.404182381581585,
        "alt_km": 35781.81209714388,
        "timestamp": "2025-12-18T23:35:48.714903+00:00",
        "meta_object_name": "DIRECTV 9S",
        "meta_object_id": "2006-043A",
        "meta_epoch": "2025-12-18T14:31:34.602240",
        "meta_mean_motion": 1.00271821,
        "meta_eccentricity": 0.000281,
        "meta_inclination": 1.9545,
        "meta_ra_of_asc_node": 83.1512,
        "meta_arg_of_pericenter": 189.8172,
        "meta_mean_anomaly": 291.1806,
        "meta_ephemeris_type": 0,
        "meta_classification_type": "U",
        "meta_norad_cat_id": 29494,
        "meta_element_set_no": 999,
        "meta_rev_at_epoch": 4957,
        "meta_bstar": 0,
        "meta_mean_motion_dot": -9e-07,
        "meta_mean_motion_ddot": 0,
        "tle_line1": "1 29494U 06043A   25352.60526160 -.00000090  00000+0  00000+0 0  9992",
        "tle_line2": "2 29494   1.9545  83.1512 0002810 189.8172 291.1806  1.00271821 49575"
      },
      "geometry": {
        "type": "Point",
        "coordinates": [
          -19.404182381581585,
          -1.9143829838695083
        ]
      }
    }
  ]
}